{"fetched_at": "2026-06-22T06:14:55.138005+00:00", "line1": "1 51280U 22006A   26157.08795008 -.00000058  00000+0  00000+0 0  9996", "line2": "2 51280   0.7690  83.2777 0002840 165.6787 110.1567  1.00289779 16021"}
